[{"OBJECT_NAME":"ONEWEB-0205","OBJECT_ID":"2021-031S","EPOCH":"2026-06-07T02:09:53.714592","MEAN_MOTION":13.1450444,"ECCENTRICITY":0.0001975,"INCLINATION":87.8967,"RA_OF_ASC_NODE":291.7082,"ARG_OF_PERICENTER":108.0852,"MEAN_ANOMALY":252.0493,"EPHEMERIS_TYPE":0,"CLASSIFICATION_TYPE":"U","NORAD_CAT_ID":48226,"ELEMENT_SET_NO":999,"REV_AT_EPOCH":24694,"BSTAR":-0.00047594,"MEAN_MOTION_DOT":-1.64e-06,"MEAN_MOTION_DDOT":0.0},{"OBJECT_NAME":"ONEWEB-0206","OBJECT_ID":"2021-031T","EPOCH":"2026-06-06T01:46:09.931584","MEAN_MOTION":13.14502738,"ECCENTRICITY":0.0001817,"INCLINATION":87.8962,"RA_OF_ASC_NODE":291.9133,"ARG_OF_PERICENTER":94.2958,"MEAN_ANOMALY":265.8379,"EPHEMERIS_TYPE":0,"CLASSIFICATION_TYPE":"U","NORAD_CAT_ID":48227,"ELEMENT_SET_NO":999,"REV_AT_EPOCH":24676,"BSTAR":0.00018066,"MEAN_MOTION_DOT":8e-07,"MEAN_MOTION_DDOT":0.0},{"OBJECT_NAME":"ONEWEB-0182","OBJECT_ID":"2021-031U","EPOCH":"2026-06-07T03:13:50.760192","MEAN_MOTION":13.14501744,"ECCENTRICITY":0.0002098,"INCLINATION":87.896,"RA_OF_ASC_NODE":291.7098,"ARG_OF_PERICENTER":97.4677,"MEAN_ANOMALY":262.6691,"EPHEMERIS_TYPE":0,"CLASSIFICATION_TYPE":"U","NORAD_CAT_ID":48228,"ELEMENT_SET_NO":999,"REV_AT_EPOCH":24711,"BSTAR":0.0006417500000000001,"MEAN_MOTION_DOT":2.51e-06,"MEAN_MOTION_DDOT":0.0},{"OBJECT_NAME":"ONEWEB-0186","OBJECT_ID":"2021-031V","EPOCH":"2026-06-07T01:40:12.905184","MEAN_MOTION":13.14501832,"ECCENTRICITY":0.0001931,"INCLINATION":87.8964,"RA_OF_ASC_NODE":291.7123,"ARG_OF_PERICENTER":102.6776,"MEAN_ANOMALY":257.4569,"EPHEMERIS_TYPE":0,"CLASSIFICATION_TYPE":"U","NORAD_CAT_ID":48229,"ELEMENT_SET_NO":999,"REV_AT_EPOCH":24705,"BSTAR":0.00031416,"MEAN_MOTION_DOT":1.29e-06,"MEAN_MOTION_DDOT":0.0},{"OBJECT_NAME":"ONEWEB-0181","OBJECT_ID":"2021-031W","EPOCH":"2026-06-07T06:37:05.187936","MEAN_MOTION":13.14503647,"ECCENTRICITY":0.0001894,"INCLINATION":87.8949,"RA_OF_ASC_NODE":291.7026,"ARG_OF_PERICENTER":106.4639,"MEAN_ANOMALY":253.6699,"EPHEMERIS_TYPE":0,"CLASSIFICATION_TYPE":"U","NORAD_CAT_ID":48230,"ELEMENT_SET_NO":999,"REV_AT_EPOCH":24693,"BSTAR":0.0008177400000000001,"MEAN_MOTION_DOT":3.16e-06,"MEAN_MOTION_DDOT":0.0},{"OBJECT_NAME":"ONEWEB-0188","OBJECT_ID":"2021-031X","EPOCH":"2026-06-07T02:03:03.466656","MEAN_MOTION":13.14503675,"ECCENTRICITY":0.0001909,"INCLINATION":87.895,"RA_OF_ASC_NODE":291.7392,"ARG_OF_PERICENTER":100.9865,"MEAN_ANOMALY":259.148,"EPHEMERIS_TYPE":0,"CLASSIFICATION_TYPE":"U","NORAD_CAT_ID":48231,"ELEMENT_SET_NO":999,"REV_AT_EPOCH":24681,"BSTAR":-0.00040747,"MEAN_MOTION_DOT":-1.38e-06,"MEAN_MOTION_DDOT":0.0},{"OBJECT_NAME":"ONEWEB-0220","OBJECT_ID":"2021-031Y","EPOCH":"2026-06-07T03:00:07.426080","MEAN_MOTION":13.1450139,"ECCENTRICITY":0.0002097,"INCLINATION":87.8964,"RA_OF_ASC_NODE":291.7032,"ARG_OF_PERICENTER":107.0902,"MEAN_ANOMALY":253.0457,"EPHEMERIS_TYPE":0,"CLASSIFICATION_TYPE":"U","NORAD_CAT_ID":48232,"ELEMENT_SET_NO":999,"REV_AT_EPOCH":24708,"BSTAR":0.0005963100000000001,"MEAN_MOTION_DOT":2.34e-06,"MEAN_MOTION_DDOT":0.0},{"OBJECT_NAME":"ONEWEB-0165","OBJECT_ID":"2021-031Z","EPOCH":"2026-06-07T01:51:37.017792","MEAN_MOTION":13.14510707,"ECCENTRICITY":0.0001792,"INCLINATION":87.8959,"RA_OF_ASC_NODE":291.726,"ARG_OF_PERICENTER":110.802,"MEAN_ANOMALY":249.3302,"EPHEMERIS_TYPE":0,"CLASSIFICATION_TYPE":"U","NORAD_CAT_ID":48233,"ELEMENT_SET_NO":999,"REV_AT_EPOCH":24703,"BSTAR":-0.0052915,"MEAN_MOTION_DOT":-1.949e-05,"MEAN_MOTION_DDOT":0.0},{"OBJECT_NAME":"ONEWEB-0199","OBJECT_ID":"2021-031AA","EPOCH":"2026-06-07T01:28:48.368352","MEAN_MOTION":13.14502258,"ECCENTRICITY":0.0001885,"INCLINATION":87.8965,"RA_OF_ASC_NODE":291.7145,"ARG_OF_PERICENTER":94.2201,"MEAN_ANOMALY":265.9144,"EPHEMERIS_TYPE":0,"CLASSIFICATION_TYPE":"U","NORAD_CAT_ID":48234,"ELEMENT_SET_NO":999,"REV_AT_EPOCH":24693,"BSTAR":0.00048176999999999996,"MEAN_MOTION_DOT":1.91e-06,"MEAN_MOTION_DDOT":0.0},{"OBJECT_NAME":"ONEWEB-0203","OBJECT_ID":"2021-031AB","EPOCH":"2026-06-07T06:43:55.967232","MEAN_MOTION":13.14502672,"ECCENTRICITY":0.0001731,"INCLINATION":87.8965,"RA_OF_ASC_NODE":291.6746,"ARG_OF_PERICENTER":100.0003,"MEAN_ANOMALY":260.1322,"EPHEMERIS_TYPE":0,"CLASSIFICATION_TYPE":"U","NORAD_CAT_ID":48235,"ELEMENT_SET_NO":999,"REV_AT_EPOCH":24697,"BSTAR":0.0009539,"MEAN_MOTION_DOT":3.66e-06,"MEAN_MOTION_DDOT":0.0},{"OBJECT_NAME":"ONEWEB-0197","OBJECT_ID":"2021-031AC","EPOCH":"2026-06-06T15:30:19.374912","MEAN_MOTION":13.14503282,"ECCENTRICITY":0.00022,"INCLINATION":87.8949,"RA_OF_ASC_NODE":291.7882,"ARG_OF_PERICENTER":99.8496,"MEAN_ANOMALY":260.2882,"EPHEMERIS_TYPE":0,"CLASSIFICATION_TYPE":"U","NORAD_CAT_ID":48236,"ELEMENT_SET_NO":999,"REV_AT_EPOCH":24680,"BSTAR":0.00026051000000000004,"MEAN_MOTION_DOT":1.09e-06,"MEAN_MOTION_DDOT":0.0},{"OBJECT_NAME":"ONEWEB-0194","OBJECT_ID":"2021-031AD","EPOCH":"2026-06-07T01:58:28.953120","MEAN_MOTION":13.14502735,"ECCENTRICITY":0.0001723,"INCLINATION":87.8947,"RA_OF_ASC_NODE":291.7212,"ARG_OF_PERICENTER":93.5698,"MEAN_ANOMALY":266.5629,"EPHEMERIS_TYPE":0,"CLASSIFICATION_TYPE":"U","NORAD_CAT_ID":48237,"ELEMENT_SET_NO":999,"REV_AT_EPOCH":24703,"BSTAR":-0.00042499,"MEAN_MOTION_DOT":-1.45e-06,"MEAN_MOTION_DDOT":0.0},{"OBJECT_NAME":"ONEWEB-0193","OBJECT_ID":"2021-031AE","EPOCH":"2026-06-07T02:21:19.041120","MEAN_MOTION":13.14502078,"ECCENTRICITY":0.0001639,"INCLINATION":87.8956,"RA_OF_ASC_NODE":291.7102,"ARG_OF_PERICENTER":87.8314,"MEAN_ANOMALY":272.3004,"EPHEMERIS_TYPE":0,"CLASSIFICATION_TYPE":"U","NORAD_CAT_ID":48238,"ELEMENT_SET_NO":999,"REV_AT_EPOCH":24698,"BSTAR":-0.00035151,"MEAN_MOTION_DOT":-1.18e-06,"MEAN_MOTION_DDOT":0.0},{"OBJECT_NAME":"ONEWEB-0191","OBJECT_ID":"2021-031AF","EPOCH":"2026-06-07T02:37:18.736032","MEAN_MOTION":13.14501898,"ECCENTRICITY":0.000208,"INCLINATION":87.8963,"RA_OF_ASC_NODE":291.7059,"ARG_OF_PERICENTER":97.7221,"MEAN_ANOMALY":262.4145,"EPHEMERIS_TYPE":0,"CLASSIFICATION_TYPE":"U","NORAD_CAT_ID":48239,"ELEMENT_SET_NO":999,"REV_AT_EPOCH":24684,"BSTAR":0.0001298,"MEAN_MOTION_DOT":6.1e-07,"MEAN_MOTION_DDOT":0.0},{"OBJECT_NAME":"ONEWEB-0195","OBJECT_ID":"2021-031AG","EPOCH":"2026-06-07T02:04:10.369632","MEAN_MOTION":13.14500749,"ECCENTRICITY":0.0001819,"INCLINATION":87.8965,"RA_OF_ASC_NODE":291.7112,"ARG_OF_PERICENTER":112.661,"MEAN_ANOMALY":247.4713,"EPHEMERIS_TYPE":0,"CLASSIFICATION_TYPE":"U","NORAD_CAT_ID":48240,"ELEMENT_SET_NO":999,"REV_AT_EPOCH":24682,"BSTAR":-0.00054728,"MEAN_MOTION_DOT":-1.9e-06,"MEAN_MOTION_DDOT":0.0},{"OBJECT_NAME":"ONEWEB-0201","OBJECT_ID":"2021-031AH","EPOCH":"2026-06-07T01:47:15.845280","MEAN_MOTION":13.14504014,"ECCENTRICITY":0.0002134,"INCLINATION":87.8954,"RA_OF_ASC_NODE":291.73,"ARG_OF_PERICENTER":100.7835,"MEAN_ANOMALY":259.3535,"EPHEMERIS_TYPE":0,"CLASSIFICATION_TYPE":"U","NORAD_CAT_ID":48241,"ELEMENT_SET_NO":999,"REV_AT_EPOCH":24705,"BSTAR":-0.00026316,"MEAN_MOTION_DOT":-8.5e-07,"MEAN_MOTION_DDOT":0.0}]