ONEWEB-0205             
1 48226U 21031S   26158.09020503 -.00000164  00000+0 -47594-3 0  9994
2 48226  87.8967 291.7082 0001975 108.0852 252.0493 13.14504440246940
ONEWEB-0206             
1 48227U 21031T   26157.07372606  .00000080  00000+0  18066-3 0  9993
2 48227  87.8962 291.9133 0001817  94.2958 265.8379 13.14502738246766
ONEWEB-0182             
1 48228U 21031U   26158.13461528  .00000251  00000+0  64175-3 0  9996
2 48228  87.8960 291.7098 0002098  97.4677 262.6691 13.14501744247116
ONEWEB-0186             
1 48229U 21031V   26158.06959381  .00000129  00000+0  31416-3 0  9994
2 48229  87.8964 291.7123 0001931 102.6776 257.4569 13.14501832247051
ONEWEB-0181             
1 48230U 21031W   26158.27575449  .00000316  00000+0  81774-3 0  9998
2 48230  87.8949 291.7026 0001894 106.4639 253.6699 13.14503647246930
ONEWEB-0188             
1 48231U 21031X   26158.08545679 -.00000138  00000+0 -40747-3 0  9999
2 48231  87.8950 291.7392 0001909 100.9865 259.1480 13.14503675246813
ONEWEB-0220             
1 48232U 21031Y   26158.12508595  .00000234  00000+0  59631-3 0  9998
2 48232  87.8964 291.7032 0002097 107.0902 253.0457 13.14501390247088
ONEWEB-0165             
1 48233U 21031Z   26158.07751178 -.00001949  00000+0 -52915-2 0  9993
2 48233  87.8959 291.7260 0001792 110.8020 249.3302 13.14510707247034
ONEWEB-0199             
1 48234U 21031AA  26158.06167093  .00000191  00000+0  48177-3 0  9992
2 48234  87.8965 291.7145 0001885  94.2201 265.9144 13.14502258246931
ONEWEB-0203             
1 48235U 21031AB  26158.28050888  .00000366  00000+0  95390-3 0  9993
2 48235  87.8965 291.6746 0001731 100.0003 260.1322 13.14502672246973
ONEWEB-0197             
1 48236U 21031AC  26157.64605758  .00000109  00000+0  26051-3 0  9998
2 48236  87.8949 291.7882 0002200  99.8496 260.2882 13.14503282246803
ONEWEB-0194             
1 48237U 21031AD  26158.08227955 -.00000145  00000+0 -42499-3 0  9993
2 48237  87.8947 291.7212 0001723  93.5698 266.5629 13.14502735247039
ONEWEB-0193             
1 48238U 21031AE  26158.09813705 -.00000118  00000+0 -35151-3 0  9996
2 48238  87.8956 291.7102 0001639  87.8314 272.3004 13.14502078246980
ONEWEB-0191             
1 48239U 21031AF  26158.10924463  .00000061  00000+0  12980-3 0  9993
2 48239  87.8963 291.7059 0002080  97.7221 262.4145 13.14501898246848
ONEWEB-0195             
1 48240U 21031AG  26158.08623113 -.00000190  00000+0 -54728-3 0  9991
2 48240  87.8965 291.7112 0001819 112.6610 247.4713 13.14500749246826
ONEWEB-0201             
1 48241U 21031AH  26158.07448895 -.00000085  00000+0 -26316-3 0  9998
2 48241  87.8954 291.7300 0002134 100.7835 259.3535 13.14504014247051
